1 31135U 07013A   15305.97005726  .00007040  00000-0  22131-3 0  9997
2 31135   2.4681  38.6545 0014008 147.9126 212.1781 15.26297236472794
1 31135U 07013A   15307.14606255  .00006721  00000-0  20941-3 0  9994
2 31135   2.4684  29.5464 0014102 166.3061 193.7376 15.26309232472978
1 31135U 07013A   15308.19139264  .00007619  00000-0  24253-3 0  9998
2 31135   2.4684  21.4527 0014254 182.4110 177.5875 15.26321703473131
1 31135U 07013A   15309.30204467  .00006928  00000-0  21686-3 0  9999
2 31135   2.4686  12.8493 0014395 199.5523 160.3979 15.26333983473309
1 31135U 07013A   15310.28202644 +.00006108 +00000-0 +18643-3 0  9992
2 31135 002.4687 005.2649 0014510 214.4320 145.4793 15.26343860106069
1 31135U 07013A   15311.13133932  .00005918  00000-0  17932-3 0  9998
2 31135   2.4688 358.6873 0014574 227.2308 132.6519 15.26351953473582
1 31135U 07013A   15312.17663880  .00007424  00000-0  23491-3 0  9994
2 31135   2.4689 350.5908 0014639 242.9648 116.8911 15.26368105473741
1 31135U 07013A   15313.09126976 +.00006719 +00000-0 +20878-3 0  9998
2 31135 002.4688 343.5077 0014633 256.4527 103.3896 15.26379761106497
1 31135U 07013A   15314.98584531  .00008051  00000-0  25778-3 0  9997
2 31135   2.4689 328.8323 0014577 284.6473  75.1965 15.26406576474179
1 31135U 07013A   15316.16177875  .00006868  00000-0  21405-3 0  9995
2 31135   2.4687 319.7314 0014389 302.1276  57.7382 15.26419798474353
1 31135U 07013A   15318.12164786  .00007027  00000-0  21978-3 0  9993
2 31135   2.4686 304.5541 0014115 331.7078  28.2209 15.26442762474652
1 31135U 07013A   15318.97091619 +.00007098 +00000-0 +22235-3 0  9995
2 31135 002.4685 297.9767 0013991 344.8109 015.1525 15.26453176107398
1 31135U 07013A   15320.01616300  .00006393  00000-0  19629-3 0  9993
2 31135   2.4686 289.8878 0013856   1.6400 358.3699 15.26465144474944
1 31135U 07013A   15322.17194702  .00007935  00000-0  25293-3 0  9996
2 31135   2.4683 273.1897 0013549  35.5953 324.5004 15.26498851475279
1 31135U 07013A   15323.15183430 +.00007948 +00000-0 +25332-3 0  9999
2 31135 002.4670 265.6071 0013360 051.8150 308.3106 15.26512915108034
1 31135U 07013A   15324.13170725  .00006778  00000-0  21016-3 0  9996
2 31135   2.4681 258.0000 0013338  66.9786 293.1674 15.26523620475573
1 31135U 07013A   15325.17689691  .00006617  00000-0  20415-3 0  9992
2 31135   2.4680 249.9038 0013351  83.9422 276.2153 15.26537364475735
1 31135U 07013A   15326.15675493 +.00006357 +00000-0 +19454-3 0  9998
2 31135 002.4679 242.3231 0013054 097.8664 262.2872 15.26548825108490
1 31135U 07013A   15326.94063048  .00006566  00000-0  20214-3 0  9990
2 31135   2.4678 236.2426 0013407 112.0421 248.1057 15.26558761476003
1 31135U 07013A   15328.18175741  .00006393  00000-0  19565-3 0  9997
2 31135   2.4676 226.6226 0013498 132.1666 227.9535 15.26572634476197
1 31135U 07013A   15329.29222885  .00006211  00000-0  18888-3 0  9998
2 31135   2.4670 218.0156 0013677 149.7194 210.3650 15.26583763476365
1 31135U 07013A   15330.14140578 +.00005439 +00000-0 +16043-3 0  9994
2 31135 002.4668 211.4304 0013806 163.1518 196.8995 15.26590721109105
1 31135U 07013A   15331.12121998  .00005194  00000-0  15139-3 0  9991
2 31135   2.4666 203.8312 0013911 178.4617 181.5480 15.26598894476648
1 31135U 07013A   15332.29698873  .00005836  00000-0  17487-3 0  9992
2 31135   2.4662 194.7120 0014153 196.6448 163.3141 15.26610775476827
1 31135U 07013A   15333.01551165 +.00005585 +00000-0 +16563-3 0  9990
2 31135 002.4663 189.1423 0014146 207.3049 152.6261 15.26616735109549
1 31135U 07013A   15334.06063260  .00006204  00000-0  18827-3 0  9994
2 31135   2.4660 181.0530 0014106 223.1358 136.7590 15.26628097477091
1 31135U 07013A   15335.30170114  .00005607  00000-0  16629-3 0  9993
2 31135   2.4662 171.4142 0014332 241.8162 118.0443 15.26637826477287
1 31135U 07013A   15336.21617004 +.00005244 +00000-0 +15291-3 0  9999
2 31135 002.4663 164.3199 0014385 255.5316 104.3141 15.26645358110031
1 31135U 07013A   15337.13063764  .00004734  00000-0  13418-3 0  9991
2 31135   2.4664 157.2327 0014400 269.3852  90.4552 15.26652080477567
1 31135U 07013A   15339.22084014  .00004662  00000-0  13150-3 0  9997
2 31135   2.4664 141.0259 0014278 300.6425  59.2222 15.26667435477882
1 31135U 07013A   15340.98443744  .00006194  00000-0  18756-3 0  9990
2 31135   2.4666 127.3515 0014113 327.2942  32.6238 15.26684230478158
1 31135U 07013A   15340.98443744 +.00006194 +00000-0 +18756-3 0  9990
2 31135 002.4666 127.3515 0014113 327.2942 032.6238 15.26684230110768
1 31135U 07013A   15342.29079604  .00005681  00000-0  16875-3 0  9996
2 31135   2.4669 117.2188 0013967 347.2935  12.6767 15.26694287478355
1 31135U 07013A   15343.20524192 +.00005243 +00000-0 +15267-3 0  9993
2 31135 002.4671 110.1273 0013867 001.4561 358.5533 15.26701339111105
1 31135U 07013A   15344.11968295  .00004908  00000-0  14038-3 0  9992
2 31135   2.4672 103.0371 0013738  15.7604 344.2876 15.26708707478631
1 31135U 07013A   15345.09943637 +.00005060 +00000-0 +14593-3 0  9999
2 31135 002.4674 095.4433 0013614 031.2893 328.7970 15.26717212111392
1 31135U 07013A   15346.20981435  .00006132  00000-0  18510-3 0  9995
2 31135   2.4677  86.8368 0013518  48.8939 311.2281 15.26729882478950
1 31135U 07013A   15347.12423580 +.00005641 +00000-0 +16711-3 0  9994
2 31135 002.4680 079.7507 0013477 063.4608 296.6827 15.26738071111709
1 31135U 07013A   15348.10396503  .00005474  00000-0  16095-3 0  9996
2 31135   2.4682  72.1577 0013424  79.3233 280.8332 15.26747743479245
1 31135U 07013A   15349.14900118  .00006513  00000-0  19885-3 0  9999
2 31135   2.4684  64.0614 0013467  96.1491 264.0097 15.26760366479405
1 31135U 07013A   15350.12871204 +.00007277 +00000-0 +22666-3 0  9991
2 31135 002.4686 056.4707 0013514 111.7780 248.3713 15.26773155112160
1 31135U 07013A   15351.10841351  .00005775  00000-0  17176-3 0  9991
2 31135   2.4687  48.8780 0013582 127.4327 232.6964 15.26781297479709
1 31135U 07013A   15352.15342174  .00005687  00000-0  16842-3 0  9997
2 31135   2.4684  40.7903 0013864 143.7424 216.3570 15.26792991479868
1 31135U 07013A   15353.59029167  .00006214  00000-0  18754-3 0  9991
2 31135   2.4686  29.6521 0014038 166.2840 193.7596 15.26807319480081
1 31135U 07013A   15353.98216188 +.00005927 +00000-0 +17708-3 0  9993
2 31135 002.4689 026.6148 0013973 172.5103 187.5160 15.26811095112755
1 31135U 07013A   15355.02714430  .00007983  00000-0  25192-3 0  9993
2 31135   2.4687  18.5135 0014173 188.2478 171.7343 15.26826734480304
1 31135U 07013A   15356.39866385  .00007957  00000-0  25074-3 0  9991
2 31135   2.4688   7.8842 0014349 209.0096 150.9159 15.26850019480514
1 31135U 07013A   15357.31300197 +.00006571 +00000-0 +20015-3 0  9999
2 31135 002.4690 000.8009 0014438 222.9743 136.9182 15.26861625113267
1 31135U 07013A   15358.09671850  .00006139  00000-0  18437-3 0  9997
2 31135   2.4694 354.7400 0014399 234.8503 125.0201 15.26870549480778
1 31135U 07013A   15359.14166595  .00006389  00000-0  19338-3 0  9997
2 31135   2.4693 346.6436 0014453 250.3553 109.4940 15.26882538480930
1 31135U 07013A   15360.05599035 +.00005782 +00000-0 +17124-3 0  9995
2 31135 002.4691 339.5572 0014476 263.7971 096.0434 15.26891082113685
1 31135U 07013A   15360.97031152  .00005694  00000-0  16802-3 0  9991
2 31135   2.4688 332.4711 0014449 277.2670  82.5741 15.26899696481211
1 31135U 07013A   15362.01524562  .00005111  00000-0  14674-3 0  9999
2 31135   2.4688 324.3716 0014410 292.9254  66.9279 15.26908363481377
1 31135U 07013A   15364.17041137  .00004620  00000-0  12886-3 0  9997
2 31135   2.4683 307.6692 0014142 325.3900  34.5234 15.26924836481702
1 31135U 07013A   15365.15002646 +.00004359 +00000-0 +11936-3 0  9992
2 31135 002.4681 300.0734 0013986 340.2815 019.6698 15.26931075114467
1 31135U 07013A   16001.39086353  .00006235  00000-0  18752-3 0  9991
2 31135   2.4679 290.4484 0013806 359.2263   0.7770 15.26945757482042
1 31135U 07013A   16002.17454908 +.00005368 +00000-0 +15596-3 0  9992
2 31135 002.4678 284.3872 0013732 012.0928 347.9455 15.26950918114777
1 31135U 07013A   16002.95822652  .00004926  00000-0  13988-3 0  9995
2 31135   2.4677 278.3106 0013590  24.5424 335.5275 15.26958104482282
1 31135U 07013A   16004.00312386  .00004481  00000-0  12372-3 0  9993
2 31135   2.4676 270.2084 0013450  41.0443 319.0622 15.26966682482448
1 31135U 07013A   16005.43984612  .00004375  00000-0  11983-3 0  9997
2 31135   2.4674 259.0628 0013313  63.8851 296.2572 15.26977064482668
1 31135U 07013A   16006.15820327 +.00004195 +00000-0 +11326-3 0  9990
2 31135 002.4670 253.4931 0013282 075.5397 284.6130 15.26981396115385
1 31135U 07013A   16007.13777474  .00004622  00000-0  12876-3 0  9999
2 31135   2.4669 245.8953 0013258  91.3160 268.8413 15.26989204482920
1 31135U 07013A   16008.37855392  .00004978  00000-0  14163-3 0  9997
2 31135   2.4667 236.2670 0013275 111.3306 248.8165 15.26999819483119
1 31135U 07013A   16009.16219863 +.00004700 +00000-0 +13151-3 0  9991
2 31135 002.4665 230.1875 0013323 123.9542 236.1779 15.27005511115843
1 31135U 07013A   16010.01114173  .00004885  00000-0  13818-3 0  9999
2 31135   2.4664 223.6005 0013400 137.4755 222.6338 15.27012978483367
1 31135U 07013A   16011.12128988  .00004942  00000-0  14016-3 0  9996
2 31135   2.4663 214.9849 0013536 155.0343 205.0366 15.27022647483533
1 31135U 07013A   16012.16612802  .00005185  00000-0  14892-3 0  9996
2 31135   2.4662 206.8766 0013679 171.3970 188.6318 15.27032122483694
1 31135U 07013A   16013.14565600 +.00005642 +00000-0 +16540-3 0  9998
2 31135 002.4662 199.2713 0013828 186.6674 173.3195 15.27042298116453
1 31135U 07013A   16014.19048012  .00005556  00000-0  16223-3 0  9999
2 31135   2.4662 191.1633 0013968 202.7048 157.2387 15.27052297484008
1 31135U 07013A   16015.23529856  .00005141  00000-0  14714-3 0  9998
2 31135   2.4661 183.0537 0014142 218.4757 141.4287 15.27060935484165
1 31135U 07013A   16016.34541367  .00004770  00000-0  13362-3 0  9997
2 31135   2.4662 174.4370 0014287 235.3415 124.5292 15.27068958484334
